NORAD_CAT_ID,OBJECT_NAME,OBJECT_TYPE,EPOCH,MEAN_MOTION,ECCENTRICITY,INCLINATION,RA_OF_ASC_NODE,ARG_OF_PERICENTER,MEAN_ANOMALY,BSTAR,MEAN_MOTION_DOT,MEAN_MOTION_DDOT,TLE_LINE0,TLE_LINE1,TLE_LINE2,SEMIMAJOR_AXIS,PERIOD,APOGEE,PERIGEE,DECAYED
51753.0,STARLINK-3507,PAYLOAD,2023-10-14 03:46:09,15.088432,0.0001941,53.2153,288.5282,102.2782,257.8427,0.00013671,1.888e-05,0.0,0 STARLINK-3507,1 51753U 22016AR  23287.15705537  .00001888  00000-0  13671-3 0  9993,2 51753  53.2153 288.5282 0001941 102.2782 257.8427 15.08843200 92292,6917.871,95.437,541.078,538.393,0.0
51753.0,STARLINK-3507,PAYLOAD,2023-10-14 06:56:55,15.08849166,0.0001746,53.2149,287.9333,92.11,268.0092,0.0001974,2.856e-05,0.0,0 STARLINK-3507,1 51753U 22016AR  23287.28953350  .00002856  00000-0  19740-3 0  9994,2 51753  53.2149 287.9333 0001746  92.1100 268.0092 15.08849166 91244,6917.852,95.437,540.925,538.51,0.0
51753.0,STARLINK-3507,PAYLOAD,2023-10-15 05:12:20,15.08828296,0.0001636,53.215,283.7701,93.9745,266.1434,-3.8454e-05,-9e-06,0.0,0 STARLINK-3507,1 51753U 22016AR  23288.21690667 -.00000900  00000-0 -38454-4 0  9991,2 51753  53.2150 283.7701 0001636  93.9745 266.1434 15.08828296 92455,6917.916,95.438,540.913,538.649,0.0
51753.0,STARLINK-3507,PAYLOAD,2023-10-15 06:47:43,15.08829583,0.000164,53.2151,283.472,94.5086,265.6094,-2.7579e-05,-7.27e-06,0.0,0 STARLINK-3507,1 51753U 22016AR  23288.28314709 -.00000727  00000-0 -27579-4 0  9991,2 51753  53.2151 283.4720 0001640  94.5086 265.6094 15.08829583 91392,6917.912,95.438,540.912,538.643,0.0
51753.0,STARLINK-3507,PAYLOAD,2023-10-15 16:20:02,15.08836812,0.0001655,53.2163,281.6872,93.2197,266.8984,3.3526e-05,2.46e-06,0.0,0 STARLINK-3507,1 51753U 22016AR  23288.68058418  .00000246  00000-0  33526-4 0  9990,2 51753  53.2163 281.6872 0001655  93.2197 266.8984 15.08836812 92528,6917.89,95.438,540.9,538.61,0.0
51753.0,STARLINK-3507,PAYLOAD,2023-10-16 06:38:30,15.08848233,0.0001637,53.2163,279.0125,95.9993,264.1186,0.0003564,5.39e-05,0.0,0 STARLINK-3507,1 51753U 22016AR  23289.27674266  .00005390  00000-0  35640-3 0  9994,2 51753  53.2163 279.0125 0001637  95.9993 264.1186 15.08848233 92618,6917.855,95.437,540.853,538.588,0.0
51753.0,STARLINK-3507,PAYLOAD,2023-10-17 08:04:40,15.08845127,0.0001582,53.2164,274.2542,95.6384,264.4789,0.0002846,4.245e-05,0.0,0 STARLINK-3507,1 51753U 22016AR  23290.33658513  .00004245  00000-0  28460-3 0  9990,2 51753  53.2164 274.2542 0001582  95.6384 264.4789 15.08845127 92777,6917.865,95.437,540.824,538.635,0.0
51753.0,STARLINK-3507,PAYLOAD,2023-10-18 03:09:18,15.0884725,0.0001503,53.2175,270.6866,94.7223,265.394,0.0001687,2.398e-05,0.0,0 STARLINK-3507,1 51753U 22016AR  23291.13146244  .00002398  00000-0  16870-3 0  9991,2 51753  53.2175 270.6866 0001503  94.7223 265.3940 15.08847250 91826,6917.858,95.437,540.763,538.683,0.0
51753.0,STARLINK-3507,PAYLOAD,2023-10-18 15:52:23,15.08846805,0.0001381,53.2171,268.3053,87.7339,272.3812,0.00016739,2.378e-05,0.0,0 STARLINK-3507,1 51753U 22016AR  23291.66138145  .00002378  00000-0  16739-3 0  9992,2 51753  53.2171 268.3053 0001381  87.7339 272.3812 15.08846805 92976,6917.86,95.437,540.68,538.769,0.0
51753.0,STARLINK-3507,PAYLOAD,2023-10-19 04:35:28,15.08844336,0.0001351,53.2164,265.927,87.7605,272.3541,0.00017634,2.52e-05,0.0,0 STARLINK-3507,1 51753U 22016AR  23292.19130299  .00002520  00000-0  17634-3 0  9997,2 51753  53.2164 265.9270 0001351  87.7605 272.3541 15.08844336 91981,6917.867,95.437,540.667,538.798,0.0
51753.0,STARLINK-3507,PAYLOAD,2023-10-19 15:43:10,15.0885148,0.0001455,53.2153,263.8489,83.5873,276.5285,0.00027911,4.158e-05,0.0,0 STARLINK-3507,1 51753U 22016AR  23292.65498058  .00004158  00000-0  27911-3 0  9996,2 51753  53.2153 263.8489 0001455  83.5873 276.5285 15.08851480 92052,6917.845,95.437,540.717,538.704,0.0
51753.0,STARLINK-3507,PAYLOAD,2023-10-20 04:26:15,15.08852162,0.0001662,53.2178,261.4637,96.8217,263.2965,0.00026225,3.89e-05,0.0,0 STARLINK-3507,1 51753U 22016AR  23293.18489968  .00003890  00000-0  26225-3 0  9994,2 51753  53.2178 261.4637 0001662  96.8217 263.2965 15.08852162 93201,6917.843,95.437,540.858,538.558,0.0
51753.0,STARLINK-3507,PAYLOAD,2023-10-20 07:37:01,15.08852852,0.0001708,53.2164,260.8691,108.7602,251.3576,0.00031472,4.726e-05,0.0,0 STARLINK-3507,1 51753U 22016AR  23293.31737866  .00004726  00000-0  31472-3 0  9991,2 51753  53.2164 260.8691 0001708 108.7602 251.3576 15.08852852 92156,6917.841,95.437,540.888,538.525,0.0
51753.0,STARLINK-3507,PAYLOAD,2023-10-20 21:55:30,15.08831614,0.0001548,53.2153,258.196,93.1018,267.0151,-3.3932e-05,-8.28e-06,0.0,0 STARLINK-3507,1 51753U 22016AR  23293.91354878 -.00000828  00000-0 -33932-4 0  9990,2 51753  53.2153 258.1960 0001548  93.1018 267.0151 15.08831614 92249,6917.906,95.438,540.842,538.7,0.0
51753.0,STARLINK-3507,PAYLOAD,2023-10-21 02:41:40,15.08832866,0.0001388,53.2162,257.3054,90.3017,269.8134,4.944e-05,4.99e-06,0.0,0 STARLINK-3507,1 51753U 22016AR  23294.11227037  .00000499  00000-0  49440-4 0  9992,2 51753  53.2162 257.3054 0001388  90.3017 269.8134 15.08832866 93347,6917.902,95.438,540.727,538.807,0.0
51753.0,STARLINK-3507,PAYLOAD,2023-10-21 07:27:49,15.08838226,0.0001559,53.2169,256.4104,103.8048,256.3117,0.00021327,3.108e-05,0.0,0 STARLINK-3507,1 51753U 22016AR  23294.31098983  .00003108  00000-0  21327-3 0  9993,2 51753  53.2169 256.4104 0001559 103.8048 256.3117 15.08838226 92307,6917.886,95.438,540.829,538.672,0.0
51753.0,STARLINK-3507,PAYLOAD,2023-10-21 21:46:17,15.08852178,0.000133,53.2167,253.7347,96.9286,263.1858,0.00068421,0.00010622,0.0,0 STARLINK-3507,1 51753U 22016AR  23294.90714696  .00010622  00000-0  68421-3 0  9999,2 51753  53.2167 253.7347 0001330  96.9286 263.1858 15.08852178 92396,6917.843,95.437,540.628,538.788,0.0
51753.0,STARLINK-3507,PAYLOAD,2023-10-22 04:07:49,15.08871537,0.0001319,53.2162,252.5455,87.1831,272.9312,0.0011116,0.00017463,0.0,0 STARLINK-3507,1 51753U 22016AR  23295.17210152  .00017463  00000-0  11116-2 0  9995,2 51753  53.2162 252.5455 0001319  87.1831 272.9312 15.08871537 93500,6917.784,95.436,540.561,538.737,0.0
51753.0,STARLINK-3507,PAYLOAD,2023-10-23 03:58:37,15.08842668,0.0001196,53.2159,248.0839,98.2155,261.8973,0.00035553,5.375e-05,0.0,0 STARLINK-3507,1 51753U 22016AR  23296.16570704  .00005375  00000-0  35553-3 0  9998,2 51753  53.2159 248.0839 0001196  98.2155 261.8973 15.08842668 93656,6917.872,95.437,540.565,538.91,0.0
51753.0,STARLINK-3507,PAYLOAD,2023-10-24 03:49:24,15.08837655,0.0001465,53.2166,243.6273,114.4624,245.6521,0.00020096,2.912e-05,0.0,0 STARLINK-3507,1 51753U 22016AR  23297.15931279  .00002912  00000-0  20096-3 0  9996,2 51753  53.2166 243.6273 0001465 114.4624 245.6521 15.08837655 93804,6917.888,95.438,540.766,538.739,0.0
51753.0,STARLINK-3507,PAYLOAD,2023-10-24 13:21:43,15.08839555,0.0001398,53.2166,241.8419,108.0065,252.108,0.000313,4.697e-05,0.0,0 STARLINK-3507,1 51753U 22016AR  23297.55675430  .00004697  00000-0  31300-3 0  9996,2 51753  53.2166 241.8419 0001398 108.0065 252.1080 15.08839555 92790,6917.882,95.438,540.714,538.78,0.0
51753.0,STARLINK-3507,PAYLOAD,2023-10-25 21:09:26,15.08847015,0.0001571,53.2168,235.8919,94.9877,265.1294,0.00021746,3.175e-05,0.0,0 STARLINK-3507,1 51753U 22016AR  23298.88155253  .00003175  00000-0  21746-3 0  9992,2 51753  53.2168 235.8919 0001571  94.9877 265.1294 15.08847015 94060,6917.859,95.437,540.811,538.637,0.0
51753.0,STARLINK-3507,PAYLOAD,2023-10-26 05:06:21,15.08846161,0.0001528,53.2162,234.4056,99.8125,260.304,0.00032197,4.841e-05,0.0,0 STARLINK-3507,1 51753U 22016AR  23299.21275268  .00004841  00000-0  32197-3 0  9992,2 51753  53.2162 234.4056 0001528  99.8125 260.3040 15.08846161 93047,6917.862,95.437,540.784,538.67,0.0
51753.0,STARLINK-3507,PAYLOAD,2023-10-27 04:57:07,15.08868277,0.0001362,53.2161,229.9453,97.4489,262.6658,0.00053031,8.168e-05,0.0,0 STARLINK-3507,1 51753U 22016AR  23300.20634039  .00008168  00000-0  53031-3 0  9995,2 51753  53.2161 229.9453 0001362  97.4489 262.6658 15.08868277 94266,6917.794,95.436,540.601,538.717,0.0
51753.0,STARLINK-3507,PAYLOAD,2023-10-27 12:54:04,15.08837842,0.0001855,53.2163,228.4585,87.1282,272.9922,-4.9612e-05,-1.078e-05,0.0,0 STARLINK-3507,1 51753U 22016AR  23300.53755150 -.00001078  00000-0 -49612-4 0  9995,2 51753  53.2163 228.4585 0001855  87.1282 272.9922 15.08837842 94310,6917.887,95.438,541.035,538.469,0.0
51753.0,STARLINK-3507,PAYLOAD,2023-10-27 19:15:37,15.08837446,0.0001839,53.2146,227.2693,88.489,271.6313,-4.0349e-05,-9.3e-06,0.0,0 STARLINK-3507,1 51753U 22016AR  23300.80251212 -.00000930  00000-0 -40349-4 0  9999,2 51753  53.2146 227.2693 0001839  88.4890 271.6313 15.08837446 93284,6917.888,95.438,541.025,538.481,0.0
51753.0,STARLINK-3507,PAYLOAD,2023-10-28 01:37:09,15.08835221,0.0001662,53.2153,226.0794,91.9723,268.1459,-4.8291e-05,-1.056e-05,0.0,0 STARLINK-3507,1 51753U 22016AR  23301.06747337 -.00001056  00000-0 -48291-4 0  9990,2 51753  53.2153 226.0794 0001662  91.9723 268.1459 15.08835221 93325,6917.895,95.438,540.91,538.61,0.0
51753.0,STARLINK-3507,PAYLOAD,2023-10-28 22:17:10,15.08845245,0.0001492,53.2159,222.2146,86.0307,274.0856,0.00013338,1.836e-05,0.0,0 STARLINK-3507,1 51753U 22016AR  23301.92859264  .00001836  00000-0  13338-3 0  9995,2 51753  53.2159 222.2146 0001492  86.0307 274.0856 15.08845245 93452,6917.864,95.437,540.762,538.697,0.0
51753.0,STARLINK-3507,PAYLOAD,2023-10-29 04:38:42,15.08857252,0.0001663,53.2162,221.0236,105.0565,255.0611,0.00062728,9.714e-05,0.0,0 STARLINK-3507,1 51753U 22016AR  23302.19354972  .00009714  00000-0  62728-3 0  9991,2 51753  53.2162 221.0236 0001663 105.0565 255.0611 15.08857252 94563,6917.828,95.436,540.843,538.542,0.0
51753.0,STARLINK-3507,PAYLOAD,2023-10-29 22:07:57,15.08842513,0.0001444,53.2172,217.7544,93.8721,266.2436,0.00020845,3.031e-05,0.0,0 STARLINK-3507,1 51753U 22016AR  23302.92219495  .00003031  00000-0  20845-3 0  9992,2 51753  53.2172 217.7544 0001444  93.8721 266.2436 15.08842513 93600,6917.873,95.437,540.737,538.739,0.0
